{
  "norad_id": 63496,
  "name": "STARLINK-33829",
  "history": [
    {
      "epoch": "2026-03-28T22:02:12.961248",
      "apogee_km": 476.1806302831865,
      "perigee_km": 474.1412258857481,
      "latitude_deg": 33.60114234897073,
      "longitude_deg": -102.2522652798798,
      "semi_major_axis_km": 6853.2979280844675,
      "eccentricity": 0.00014879,
      "inclination_deg": 53.1592,
      "raan_deg": 50.6277,
      "arg_perigee_deg": 96.7785,
      "mean_anomaly_deg": 263.3385,
      "mean_motion_rev_day": 15.30218133
    },
    {
      "epoch": "2026-03-29T04:18:25.741440",
      "apogee_km": 475.92788612036475,
      "perigee_km": 474.43797436752993,
      "latitude_deg": -52.54601661273784,
      "longitude_deg": -77.17139839986339,
      "semi_major_axis_km": 6853.319930243947,
      "eccentricity": 0.0001087,
      "inclination_deg": 53.1589,
      "raan_deg": 49.4141,
      "arg_perigee_deg": 81.8672,
      "mean_anomaly_deg": 278.2452,
      "mean_motion_rev_day": 15.30210764
    }
  ]
}